property_id,pmindx,normalized_state_id,fha_loan_id,application_number,state_id,contract_id,hud_property_name,property_street_address,city,state,zip_code,owner_organization_name,assisted_units,demographic,physical_disability_housing,mental_disability_housing,homeless_housing,owner_representative,property_manager_company,scattered_sites
800352035,5375,TC7810-2930,03313169,N-2753 / TC8132-9855,TC0891-5675,PA53RJU4693,Nvidia,560 Joy Stravenue,Grand Forks,PA,91131,Housing Authority of Etna,414,Elderly,True,True,True,Dippin' Dots,Salary.com,True
800419316,7606,TC7947-6256,03390801,TC2237-8827,TC0172-6322,PA28HHH8365,65 Wall Viaduct,56 Utah Ranch,Rocklin,PA,23875,Housing Authority of Versailles,500,General,False,False,True,Autodesk,Chrysler,
800373217,1190,TC4368-1534,03396385,TC9249-6201,TC8002-7844,PA18SKG3015,1002 Illinois Bayou,816 Roselyn Bayou,Liberty,PA,60177,Housing Authority of Wilmerding,527,General,True,True,True,Qpass,JL Audio,
800274569,5053,TC9061-1316,03340305,Y-2257 / TC0920-3422,TC4021-0116,PA35XAE6983,1267 Pueblo Trail,502 Dicha Crescent,Chico,PA,08976,Housing Authority of Plum,325,Elderly,True,False,False,Romp,BFG Technologies,
800125832,3495,TC7005-8556,03310450,N-2573 / TC0938-0208,TC8812-6321,PA31TBB5789,Kroger,955 Skyview Hill,Cape Coral,PA,19774,Housing Authority of McCandless,274,General,False,True,True,Giant Food,Fisker Automotive,
800639402,5645,TC7113-5841,03342160,N-1279 / TC1504-6282,TC4789-6018,PA34REG6477,1280 Public Path,1181 Candlestick Cove Annex,Milledgeville,PA,50633,Housing Authority of Thornburg,66,General,False,True,False,Opti-Tek,Capital One,
800859634,7963,TC4045-5217,03310145,Y-4860 / TC4348-2512,TC1066-2085,PA40VLP4385,673 Princeton Road,501 Paul Landing,Angleton,PA,24183,Housing Authority of Duquesne,527,Elderly,True,True,False,OPOWER,Avant Garde Appraisal Group,True
800982429,1691,TC6265-2823,03367482,TC8955-5462,TC7612-8390,PA37ZBJ2275,Go Daddy,79 Stoneyford Walk,Daphne,PA,79239,Housing Authority of Bridgeville,410,Elderly,True,True,True,Advanced Processing & Imaging,Fruit of the Loom,True
800862001,6821,TC6130-3197,03377802,Y-6833 / TC4048-8646,TC7793-3212,PA99NJL1705,1233 Cragmont Spur,1044 Olympia Field,Fort Wayne,PA,52155,Housing Authority of McCandless,218,Elderly,False,True,False,Profitpros,Erie Insurance Group,True
800102986,661,TC3813-0098,03383213,N-8526 / TC5319-8856,TC0943-4807,PA75ZLR6153,Pinnacle Systems,7 Hill Point Highway,Fort Wayne,PA,82417,Housing Authority of Coraopolis,169,General,True,False,True,House of Gas,ASARCO,True
800579732,10460,TC1339-6653,03358762,TC2432-9953,TC4370-7100,PA67YZN7054,Towers Perrin,642 Lessing Canyon,De Land,PA,11021,Housing Authority of East McKeesport,369,General,True,True,True,Arryx,American Express,True
800016878,9530,TC2791-3165,03352617,Y-0259 / TC0415-5415,TC1807-4907,PA43KNM3397,House of Gas,1317 Public Estate,Texas City,PA,91549,Housing Authority of Pine,275,General,False,False,True,Ocean Spray,Grey Fade,
800084199,2924,TC4027-0593,03371523,Y-8417 / TC7369-2555,TC7519-6300,PA04NAP1686,The Pink Pig Tavern,1049 Hancock Lodge,Burien,PA,99542,Housing Authority of Bridgeville,537,Elderly,False,True,False,OpenMarket Inc.,Landskip Yard Service,
800257462,8011,TC0896-7195,03334086,Y-5009 / TC4724-0322,TC0317-0865,PA68KHK1200,336 Sutro Heights Court,178 Surrey Avenue,Glendora,PA,30905,Housing Authority of Moon,564,Elderly,True,True,False,Grass Roots Yard Services,Marathon Oil,True
800013957,1690,TC9516-7057,03396231,Y-8838 / TC7597-1703,TC8998-8023,PA45LEI1405,1207 Parker Park,1221 Allen Shore,West Memphis,PA,99670,Housing Authority of Crescent,587,Elderly,False,False,False,Imation,Royal Gas,
800426131,2363,TC2026-9965,03336393,TC1219-0174,TC5065-8358,PA22CYS3112,353 Merrie Lodge,1263 Hugo Plaza,Altamonte Springs,PA,06892,Housing Authority of Dormont,179,Elderly,False,True,True,Integra Investment Plan,Ashland Inc.,
800415590,6889,TC8219-8057,03301743,Y-4606 / TC2381-8959,TC4492-4085,PA72VWH8040,296 Helen Place,1018 Kansas Creek,San Mateo,PA,21456,Housing Authority of Forward,225,General,True,True,True,Netcom Business Services,Allstate,
800680909,1084,TC1953-4946,03353199,N-2035 / TC4834-9783,TC5349-9409,PA25WKT0257,1077 San Benito Drive,79 Cabrillo Annex,Bothell,PA,75901,Housing Authority of Leetsdale,153,Elderly,False,True,True,Xilinx,The Happy Bear,True
800689837,4340,TC3802-4540,03300618,Y-5446 / TC4723-4243,TC3842-3451,PA98UYD6973,YASH Technologies,59 Brussels Lodge,Pharr,PA,32185,Housing Authority of Reserve,220,Elderly,True,False,False,EMC Corporation,Babcock and Wilcox,
800612648,6376,TC5573-2794,03336039,Y-2469 / TC6294-3894,TC9669-9269,PA15LKV9245,Continental Airlines,1193 Alpha Lake,Clarksburg,PA,32542,Housing Authority of West View,524,General,False,True,False,Wise Appraisals,Kohler Company,True
800188940,9460,TC4799-8483,03375365,TC2444-9980,TC5163-4622,PA05TXL5106,U.S. Steel,1145 Lupine Field,Fairview Heights,PA,11250,Housing Authority of Elizabeth,348,General,True,False,False,Chugach Alaska Corporation,Reliable Guidance,
800811815,4563,TC0013-1157,03399505,N-9168 / TC2294-1370,TC2514-4864,PA92OOB6843,Armstrong World Industries,186 Stanton Row,Tustin,PA,11403,Housing Authority of Kilbuck,291,Elderly,False,False,False,SkyWest Airlines,Envirotecture Design Service,
800755871,10209,TC1684-4730,03321193,N-0102 / TC5580-4024,TC4361-0845,PA61BFA0824,Auto-Owners Insurance,688 Cesar Chavez On Grove,Shreveport,PA,31703,Housing Authority of Glassport,206,Elderly,False,False,True,Total Yard Maintenance,Diebold,
800335116,9021,TC7885-9276,03326725,N-5811 / TC9308-3116,TC6239-1975,PA44TSY0944,Brilliant Home Designs,886 Broadmoor Pine,Lima,PA,83768,Housing Authority of Hampton,221,Elderly,False,False,False,Bold Ideas,Target Realty,
800702046,3108,TC1351-5185,03356991,N-0333 / TC3907-1122,TC3707-0091,PA64CHS2557,404 Joice Square,35 Wetmore Motorway,Oak Park,PA,87354,Housing Authority of Elizabeth,308,Elderly,False,True,True,The Pink Pig Tavern,Albertsons LLC,
800637620,6517,TC1932-1128,03333285,Y-5291 / TC7970-8292,TC1288-3510,PA13BKQ0710,Prahject Planner,134 Decker Bridge,Hoover,PA,56684,Housing Authority of East McKeesport,95,General,True,False,False,Team Designers and Associates,Dollar Tree,
800259119,1270,TC9940-5984,03314192,Y-6566 / TC4884-3239,TC2468-8675,PA39BXP8548,805 Hillside Alley,1368 Nauman Viaduct,Ardmore,PA,88774,Housing Authority of East Pittsburgh,540,General,False,False,False,Verizon Wireless,Magna Wealth,True
800724989,5331,TC1846-9126,03335626,TC6333-4034,TC5369-7972,PA45XQH7806,1150 Miley Mall,432 Rhine Pike,Dania Beach,PA,99696,Housing Authority of Glen Osborne,280,Elderly,False,True,False,Aloha Airlines,Total Yard Maintenance,True
800232372,416,TC2540-5585,03367521,TC0250-2161,TC0257-9817,PA84YUQ8043,649 East Beach Parkway,971 Mizpah Bypass,Sheridan,PA,42314,Housing Authority of Braddock Hills,182,General,False,True,False,Master Builder Design Services,Harman International Industries,True
800658368,7998,TC1736-5594,03375011,TC6782-1085,TC1509-9480,PA62LGS3852,Destiny Planners,1351 Candyland Estate,Garner,PA,61501,Housing Authority of Oakdale,490,General,True,True,True,Johnson Controls,Miro Technologies,True
800672088,4902,TC6070-0079,03374232,N-6750 / TC1646-6400,TC7122-2609,PA27ADD4932,Emcor,759 Reuel Lake,Villa Park,PA,95088,Housing Authority of Fawn,260,Elderly,False,True,True,Dippin' Dots,AGL Resources,True
800111125,8753,TC4305-1753,03306435,Y-2914 / TC7330-1764,TC4430-4457,PA19BEU0917,132 Bella Vista Estate,995 Kate Drive,Liberal,PA,38889,Housing Authority of Richland,367,General,True,False,True,Pilgrim's Pride,Magik Grey,True
800799184,4504,TC6135-0646,03352135,Y-3479 / TC3597-4211,TC6575-2567,PA46OEK5699,618 Bright Bypass,641 Peru Loop,Fort Pierce,PA,44956,Housing Authority of Bellevue,446,General,True,True,True,Entergy,Practi-Plan,
800165504,3878,TC2324-2205,03329815,TC9377-6938,TC2588-5666,PA48GEU7030,Ariba,979 Dolphin Creek,Arnold,PA,39537,Housing Authority of Forest Hills,270,General,False,False,False,United Services Automobile Association,Precision Castparts Corporation,
800491589,4702,TC8441-2519,03376110,TC6266-9564,TC7256-9098,PA84CAK1417,480 Edward Arcade,852 Church Parking Lot Spur,Howard,PA,87241,Housing Authority of Millvale,290,Elderly,False,True,True,West Liberty Foods,PepsiCo,True
800552529,4444,TC7428-8720,03387534,TC6056-3209,TC9546-8196,PA80LHE6009,Ejecta,905 Ashburton Garden,Waxahachie,PA,32096,Housing Authority of Homestead,101,Elderly,False,False,False,Arch Coal,Gore-Tex,
800710545,5779,TC7155-7604,03342451,N-9155 / TC0841-2407,TC6493-5981,PA98AVJ4850,1380 Nordhoff Center,1221 Marvel Circle,Wichita Falls,PA,46785,Housing Authority of West Mifflin,560,Elderly,True,False,False,Pro-Care Garden Maintenance,Integra Investment Service,
800118694,4721,TC8241-4270,03389157,N-3305 / TC9099-7677,TC9909-0728,PA57RMQ7411,388 Comerford Hill,114 Piper Bridge,Fresno,PA,63367,Housing Authority of Ben Avon,572,General,False,True,False,eBay,Maxi-Tech,True
800456386,9263,TC8910-5908,03325748,N-0885 / TC5451-2490,TC0750-6656,PA15VER6551,Vocera Communications,717 San Jacinto Hills,San Rafael,PA,42903,Housing Authority of Plum,33,General,False,True,False,Eastman Kodak,Advansed Teksyztems,
800513027,9914,TC5305-3233,03387182,Y-7125 / TC3627-8219,TC6585-6882,PA82XWL9087,American Financial Group,417 Upper Extension,Cheyenne,PA,34578,Housing Authority of Franklin Park,265,General,False,True,False,Ariba,Shirokiya,True
800326898,7384,TC4459-0233,03337198,N-6222 / TC2729-2811,TC0454-6017,PA43CBS3102,Pro Yard Services,414 Brant Station,Clearfield,PA,71689,Housing Authority of Haysville,435,Elderly,False,False,True,Home City Ice Co.,Renys,True
800253716,1052,TC1037-1159,03372347,TC2929-8901,TC2861-8139,PA83ZEQ5729,133 Coleridge Crossing,148 Pope Crescent,Poughkeepsie,PA,04962,Housing Authority of North Fayette,188,General,True,True,False,Idea Infinity,Myspace,True
800998405,4169,TC2547-7126,03373648,Y-4773 / TC7727-9036,TC5133-5268,PA83OCG2979,ChexSystems,184 Farallones Bend,Suisun City,PA,66976,Housing Authority of Green Tree,148,Elderly,False,False,False,Golden Joy,Office Max,True
800065431,264,TC4866-9860,03381124,N-7518 / TC6343-3779,TC6435-8493,PA59KCN9717,999 Ggp Access Road Street,1313 Redwood Row,Vineland,PA,22502,Housing Authority of Cheswick,466,Elderly,False,True,True,Dereon,Star Bright Investment Group,True
800556177,9568,TC7803-6592,03347612,N-4172 / TC9372-5082,TC4812-1329,PA70VKE8294,Fisher Electronics,43 Adair Highway,Ceres,PA,16862,Housing Authority of Cheswick,181,Elderly,True,True,False,Soyo Group,Testor Corporation,
800260345,5774,TC2790-8412,03342658,Y-4144 / TC7901-9747,TC9046-9105,PA97JIY8948,5 Patton Avenue,408 Fairfax Station,Pocatello,PA,49714,Housing Authority of Millvale,1,Elderly,True,True,False,The Coca-Cola Company,Parts and Pieces,True
800427416,7127,TC0491-9952,03334277,TC8795-5423,TC7085-0923,PA94BCE6306,64 Moscow Square,1001 Jessie West Viaduct,East Moline,PA,05903,Housing Authority of Oakdale,597,General,True,True,True,Deere & Company,ONEOK,True
800739113,9994,TC8515-8965,03336133,N-7966 / TC3596-3176,TC0323-4463,PA06LYY9922,204 Reservoir Field,638 Clara Field,New Brighton,PA,59705,Housing Authority of Braddock Hills,463,General,True,True,False,Zig Zag Children Clothes,E-zhe Source,
800698929,8785,TC7431-8168,03392197,TC8516-5040,TC3459-6532,PA30NDP1182,Benchmark Electronics,29 Kenneth Rexroth Route,Country Club Hills,PA,12580,Housing Authority of Richland,453,Elderly,True,False,False,Formula Gray,Informix,True
800470514,1825,TC7215-0004,03355035,N-8341 / TC0237-0990,TC8346-9220,PA83OZG5876,256 Starview Arcade,1061 York Spur,Norristown,PA,84828,Housing Authority of Leet,468,General,True,True,False,MagnaSolution,MagnaSolution,True
800822488,9236,TC7655-5577,03317523,Y-8115 / TC4735-2482,TC4416-9978,PA03UTI2193,65 Lois Place,445 Nobles Plaza,Corpus Christi,PA,61407,Housing Authority of West Deer,435,Elderly,True,True,False,Iron Mountain,B/E Aerospace,True
800095256,7775,TC6758-0552,03313644,Y-2510 / TC9468-6209,TC3624-5876,PA80NVL3507,Netcom Business Services,263 South Park Glen,Helena,PA,91025,Housing Authority of Fox Chapel,469,Elderly,False,False,False,Continental Airlines,Price Waterhouse Coopers,True
800815668,3716,TC1500-7384,03310632,TC9561-6507,TC9977-4653,PA09EQI5962,Stratabiz,431 Eddy Manor,Parkland,PA,75866,Housing Authority of Springdale,200,Elderly,True,False,False,Atmos Energy,BMC Software,
800813471,9997,TC1015-9360,03331513,TC2565-1321,TC7103-2892,PA25LPH3007,924 Loehr Extension,940 Cook Estate,Laramie,PA,57431,Housing Authority of North Fayette,109,Elderly,False,True,False,Magna Gases,News Corporation,True
800582561,4195,TC3158-2328,03322258,N-8599 / TC6691-2269,TC1950-5022,PA32OFG6563,Best Biz Survis,1311 Wisser Mews,Madera,PA,26766,Housing Authority of Leetsdale,240,Elderly,True,False,True,VonMaur,Tupperware Brands Corporation,
800241580,636,TC5193-3795,03396705,TC2321-9599,TC5166-1409,PA48XQG7119,262 Bradford Pike,1038 Ervine Expressway,Brookings,PA,29465,Housing Authority of Bethel Park,404,General,True,False,True,Energizer Holdings,Science Applications International Corporation,
800796404,1890,TC2466-0435,03371087,N-6889 / TC3954-8568,TC3839-5820,PA17MOS0412,581 Tevis Crossing,776 Amatista Bypass,Easley,PA,19257,Housing Authority of Findlay,499,General,False,True,True,Opticomp,Cougar Investment,
800609824,5599,TC3877-5849,03350616,N-4379 / TC0378-6593,TC8771-3875,PA85JAO4961,1125 Bosworth Walk,376 Junipero Serra Gardens,Buffalo,PA,50553,Housing Authority of North Versailles,30,Elderly,True,True,False,Life Plan Counselling,VECO Corporation,
800564579,5557,TC4247-0175,03348198,N-9302 / TC0625-0133,TC7804-9504,PA59JWL2042,501 Delancey Motorway,628 Meacham Bridge,Los Angeles,PA,47509,Housing Authority of Leetsdale,26,Elderly,False,True,False,A+ Investments,BJ Services Company,
800053890,7000,TC3172-2961,03368740,TC8610-7527,TC7528-0745,PA70YKG7906,380 Encinal Extension,42 Mirabel Heights,Frankfort,PA,10325,Housing Authority of Avalon,202,Elderly,False,True,True,Yahoo!,W. R. Berkley,True
800443591,5022,TC6934-8175,03357676,TC3351-0781,TC7741-5858,PA42NKE5596,Ashland Inc.,597 Ofarrell Freeway,Waltham,PA,01343,Housing Authority of Glen Osborne,102,Elderly,False,True,False,General Communication,American Express,
800411124,2564,TC1488-7807,03338535,TC9663-1254,TC7676-9332,PA49EKB2515,1131 Whitfield Turnpike,79 Cityview Heights,Mount Clemens,PA,46710,Housing Authority of Braddock,121,Elderly,False,True,True,US Cellular,Klipsch Audio Technologies,
800826486,8272,TC5429-1547,03345974,Y-5984 / TC1795-8731,TC5680-4072,PA36EUV9912,1093 Alpha Plaza,1169 Milton Cove,Westland,PA,42613,Housing Authority of Haysville,227,General,False,True,False,Houchens Industries,Vitamax Health Food Center,
800470609,9524,TC8310-6916,03349075,TC5328-0140,TC5390-4163,PA12GGP0815,Del Monte Foods,1159 Sotelo Plaza,Imperial Beach,PA,55023,Housing Authority of Sewickley,54,Elderly,True,True,True,Helios Air,The Flying Bear,True
800329029,6082,TC8341-3681,03399852,N-4182 / TC4415-9978,TC1278-2467,PA86LDE9948,421 Silver Court,1381 Alpha Estate,Creve Coeur,PA,10792,Housing Authority of Brentwood,64,Elderly,True,False,False,Archer Daniels Midland,Cut Above,
800217665,10775,TC7986-1987,03324801,TC2356-7645,TC1325-2904,PA17OMU8732,BlueLinx Holdings,304 Mariposa Crescent,Fresno,PA,65439,Housing Authority of Port Vue,469,General,True,False,False,Mikro Designs,Oracle Corporation,
800559928,8105,TC0881-2186,03389886,TC8885-4314,TC7566-9655,PA83JVR3185,Excella,1064 Jason Lake,Ramsey,PA,55053,Housing Authority of Cheswick,5,Elderly,True,True,True,Fender Musical Instruments Corporation,J. C. Penny,
800596428,6702,TC9626-7687,03350536,TC7414-3384,TC9741-8741,PA29IMH8469,396 Guy Hill,522 Lancaster Lake,Pleasantville,PA,60278,Housing Authority of Whitaker,386,General,True,True,False,Union Pacific Railroad,Marathon Oil,
800207101,7771,TC8583-0192,03339862,N-0570 / TC1878-3663,TC4171-7632,PA92ELQ8513,Dominion Resources,697 Drummond Row,Federal Way,PA,97331,Housing Authority of Harmar,422,General,True,False,True,Fox Film Corporation,Omni Tech Solutions,True
800854840,6047,TC2665-7748,03306051,N-8418 / TC2935-4481,TC1473-3504,PA33AJQ7171,316 Spring Valley Motorway,564 Zoo Annex,Tupelo,PA,71413,Housing Authority of Tarentum,92,Elderly,False,True,True,Bucyrus International,Local Matters,
800650072,1801,TC2109-8869,03302098,Y-5496 / TC3187-4763,TC8198-9471,PA96ACX3078,541 Ocean Vista Freeway,569 Regent Plaza,Seattle,PA,07383,Housing Authority of Fox Chapel,109,General,True,True,False,Choices,Corsair Memory,
800972829,6197,TC2037-4255,03394174,Y-4353 / TC5750-2317,TC0323-0943,PA40ZPB5786,Convergys Corp.,1392 Sfgh Access Avenue,Fountain Hills,PA,78052,Housing Authority of Mount Oliver,177,General,True,False,True,Formula Grey,Fireball,True
800733465,1220,TC2797-6803,03372225,N-9644 / TC1972-2182,TC9679-4547,PA01UDB8337,1342 Diamond Cove Field,1368 Quarry Manor,San Angelo,PA,94116,Housing Authority of Glen Osborne,176,Elderly,True,False,True,Pizza Hut,Ideal Industries,
800749277,10626,TC1268-5174,03303816,N-8230 / TC6542-8273,TC1371-8721,PA19KYB5733,1309 Frank Norris Row,949 Storrie Junction,Alvin,PA,38557,Housing Authority of Elizabeth,244,General,False,True,False,Local Matters,Kimberly-Clark,
800478269,8716,TC0571-7681,03335460,N-6074 / TC6045-0113,TC5500-1155,PA63ZBO3478,Creative Wealth Management,262 Decker Square,Pine Bluff,PA,13712,Housing Authority of Avalon,488,General,True,False,False,Rockwell Collins,Desert Garden Help,True
800646265,5862,TC2118-8616,03345119,TC5094-9681,TC5370-7615,PA34DMG0404,193 Spreckels Lake Turnpike,357 Berkshire Field,West Memphis,PA,08632,Housing Authority of Castle Shannon,239,General,True,True,False,Textron Inc.,Omni Tech Solutions,True
800576829,2838,TC9143-8576,03342784,N-8787 / TC2466-1022,TC8402-1790,PA62ZTI5249,Storage Technology Corporation,591 Seal Rock Road,Altus,PA,03335,Housing Authority of Port Vue,186,Elderly,True,False,False,Baker Hughes,Corpbay,
800042406,1976,TC5753-9868,03387669,N-3298 / TC5115-0665,TC9134-2316,PA63JUV2070,250 Henry Row,1349 Thrift Pike,Bowie,PA,34254,Housing Authority of Bethel Park,274,General,True,False,False,Hallmark Cards,One-Up Realtors,
800780094,10490,TC0647-2077,03348026,TC2278-2539,TC8478-9568,PA70PKW8378,993 Mulford Bypass,810 Marshall Trace,Porterville,PA,41280,Housing Authority of Rankin,154,General,False,False,False,Six Flags,Acme Brick Company,True
800173391,7450,TC7638-3728,03387174,N-4444 / TC9316-2851,TC0844-8785,PA84HGV0238,930 Graymalkin Bypass,41 Westside Estate,Los Banos,PA,36454,Housing Authority of North Fayette,259,Elderly,True,True,True,The Flying Hippo,Paramount Pictures,True
800850732,3237,TC3544-4281,03375279,N-0088 / TC0346-0171,TC2392-0892,PA55ZNM3396,1065 Santa Marina Garden,273 Montana Loop,Rohnert Park,PA,67497,Housing Authority of Moon,338,Elderly,False,False,True,Emcor,Capitalcorp,True
800921590,6193,TC0396-6058,03316782,TC0300-9364,TC7942-6308,PA75CBZ1111,966 Margaret Lodge,251 Santa Monica Pine,Sandy Springs,PA,63495,Housing Authority of Glen Osborne,533,Elderly,False,True,False,Halliburton,Intuit,True
800582500,7081,TC0370-4391,03348139,Y-2923 / TC3398-4996,TC5814-9822,PA51GWN3278,Electronics Source,1017 Shotwell Extension,Grayslake,PA,07623,Housing Authority of Franklin Park,197,Elderly,True,True,True,Emerson Electric Company,Avant Garde Interior Designs,True
800681150,9066,TC8071-9974,03379625,N-9773 / TC8338-7102,TC2122-4678,PA85PWD4709,307 Via Bufano Loop,1207 Valley Lodge,Racine,PA,88515,Housing Authority of Forward,28,General,True,True,True,American Airlines,Harman International Industries,True
800554401,7913,TC8538-3411,03343924,TC7261-8333,TC4967-5577,PA92LFT6121,Steinway & Sons,1011 Service Landing,Laguna Beach,PA,81089,Housing Authority of North Fayette,523,General,False,True,True,Manu Connection,Monsource,True
800275703,8487,TC0683-4221,03341468,Y-9819 / TC7781-8411,TC7269-6103,PA53QTF9073,919 Malta Place,1232 Stanford Turnpike,Harrisonburg,PA,74008,Housing Authority of Oakmont,229,Elderly,True,True,False,Danaher,Iron Mountain,True
800669475,7773,TC5831-4476,03353298,TC5296-2557,TC3061-3595,PA77JWY5720,331 Mcnair Heights,643 Bernal Heights Parkway,Revere,PA,91587,Housing Authority of Carnegie,385,General,True,False,False,The Coca-Cola Company,AECOM,
800286176,7684,TC5048-5383,03345086,N-6195 / TC8558-2643,TC1276-8058,PA22BPQ1058,Dreamscape Garden Care,1318 Stone Place,Warrensburg,PA,40977,Housing Authority of Edgeworth,0,Elderly,False,True,True,Asian Fusion,DiC Entertainment,
800571487,6247,TC9228-5809,03355875,Y-6679 / TC1653-2038,TC4538-2017,PA14UVZ1833,Stratabiz,341 Fell Place,Junction City,PA,49486,Housing Authority of Kennedy,229,General,False,False,True,The Jolly Farmer,NetDNA,True
800286746,7373,TC8115-4304,03313324,TC2716-3594,TC1517-0132,PA11SUV0069,Dun Rite Lawn Maintenance,385 Dellbrook Street,Sebastian,PA,33454,Housing Authority of North Braddock,126,General,False,True,True,Eddie Bauer,Infinite Wealth Planners,True
800983542,890,TC4472-0421,03399847,Y-9157 / TC2592-4342,TC2326-9483,PA06AHT6233,Libera,1228 Colton Rapids,Salisbury,PA,85243,Housing Authority of Blawnox,299,Elderly,False,False,True,International Business Machines,Northwest Airlines,True
800188867,1647,TC7316-5215,03377204,TC7594-3583,TC5619-5112,PA93HRL6777,The Liberty Corporation,421 Nellie Drive,Valdosta,PA,67860,Housing Authority of Mount Oliver,86,General,True,False,True,Integra Investment Plan,Kimberly-Clark,
800039274,10193,TC6107-5010,03386895,TC2861-6230,TC4525-0782,PA01SSI7341,471 Fortuna Crossing,1279 Aladdin Bridge,Terrell,PA,40054,Housing Authority of North Versailles,535,Elderly,True,False,False,Intel,Terra Nova Garden Services,
800860384,9801,TC7814-9661,03324923,N-7138 / TC1486-5989,TC5392-4102,PA59OKU2681,Affinity Investment Group,621 Julia Mall,Cerritos,PA,36379,Housing Authority of Bellevue,320,General,True,False,True,Helping Hand,DineEquity,True
800275761,1439,TC6327-3903,03390459,TC0170-7053,TC6706-5586,PA50PNE3759,446 Hegal Ranch,763 Lysette Extension,Novi,PA,37441,Housing Authority of Sharpsburg,398,General,True,True,True,Verbatim Corporation,Wahl Clipper,
800323686,9112,TC3679-0045,03366408,N-1886 / TC4709-3169,TC9699-4684,PA70OYI7941,Sexy Babe,1043 Manzanita Pike,Evergreen Park,PA,94673,Housing Authority of Carnegie,538,General,True,False,False,Dippin' Dots,Matrix Architectural Service,True
800597130,2671,TC3531-5944,03327632,N-8252 / TC3984-6907,TC7440-0102,PA98QGW0241,222 Decatur Row,1074 Jarboe Avenue,Ellensburg,PA,44881,Housing Authority of Forest Hills,588,Elderly,False,False,True,First Rate Choice,Sony Pictures Entertainment,
800197331,10232,TC6680-0160,03382264,Y-1492 / TC0407-8984,TC5888-2587,PA72EAV8131,1368 Pope Walk,1388 Attridge Mews,Mount Pleasant,PA,82479,Housing Authority of South Park,218,General,True,True,True,Creative Wealth,Dereon,
800220905,5512,TC4801-6136,03399379,N-9743 / TC7617-5462,TC8791-1024,PA18HFE5747,Assurant,946 Crestmont Turnpike,Wheeling,PA,34790,Housing Authority of Millvale,123,General,True,False,True,Atlas Realty,NBC Universal,True
800160664,9377,TC9137-2039,03325632,N-5406 / TC6631-8710,TC5398-7057,PA49ZZH0437,208 Elliot Lane,915 Delgado Route,Fishers,PA,71745,Housing Authority of North Versailles,598,Elderly,False,True,False,Grey Fade,Advance Auto Parts,True
800497306,2898,TC7425-8721,03353481,N-2539 / TC2065-1037,TC5501-2804,PA35QGL5484,215 Earl Heights,291 Striped Bass Route,Germantown,PA,07089,Housing Authority of Blawnox,46,Elderly,True,True,True,Whirlpool Corporation,Just For Fun,True
800515577,5398,TC8006-9084,03377868,TC9613-7540,TC8130-7169,PA30KZJ4300,593 Olmstead Path,1219 Castillo Hill,Shoreline,PA,01939,Housing Authority of Blawnox,12,General,False,True,True,Dow Chemical Company,Estée Lauder Companies,True
800960725,9357,TC0434-3567,03326473,Y-5370 / TC5187-1518,TC9547-9021,PA96NFW4145,National Railway Equipment Company,1311 Mojave Trace,Belleville,PA,91209,Housing Authority of Whitaker,314,General,False,False,True,Snap-on Tools,Time Warner Cable,True
800597858,5108,TC1816-7797,03315558,TC8176-6087,TC2664-4869,PA61HNN8475,276 Fauntleroy Gardens,107 Inverness Bypass,Ocala,PA,39090,Housing Authority of Fawn,240,General,False,True,False,Colt Defense,Omni Tech Solutions,
800206423,9940,TC7197-1533,03366807,N-3410 / TC3935-3490,TC6769-8978,PA31LAL1397,Adaptas,1395 Ahern Park,Trotwood,PA,67721,Housing Authority of Neville,438,Elderly,False,True,True,Matrix Architectural Service,DirecTV,True
800719919,9607,TC1574-7735,03370350,TC6395-9705,TC1427-7829,PA16EMZ0197,Lawnscape Garden Maintenance,270 Farallones Alley,Lewiston,PA,04183,Housing Authority of Aleppo,585,General,True,False,True,Boston Acoustics,Take-Two Interactive,
800264999,4233,TC4953-9409,03334923,N-5312 / TC9231-8203,TC7391-1184,PA76ZLA1612,BorgWarner,224 Hussey Estate,Honolulu,PA,86641,Housing Authority of Harmar,128,General,False,False,True,Avant Garde Appraisal Group,Bed Bath & Beyond,
800201463,6738,TC2938-5007,03372551,N-4596 / TC3251-1082,TC3426-0155,PA65OBW1472,Baker Hughes,202 Kirkwood Shore,Midland,PA,93051,Housing Authority of Sewickley,401,Elderly,True,True,True,Southern California Edison,Sears,True
800083544,2518,TC0658-1820,03366675,Y-4131 / TC8741-6814,TC4407-5747,PA35ZOZ0634,Mozilla Foundation,365 Eddy Ranch,Cumberland,PA,74110,Housing Authority of Aspinwall,469,Elderly,True,True,False,Integra Investment Service,Dex One,True
800525902,7609,TC4713-7536,03300738,N-5968 / TC7766-4126,TC8971-3425,PA45ROP3454,1136 Saint Louis Crossing,835 San Anselmo Rapids,Placentia,PA,79871,Housing Authority of Hampton,458,General,True,False,False,Future Plan,Autodesk,
800582836,10615,TC7328-2015,03310030,Y-0024 / TC9670-7476,TC9798-6176,PA08GOH7463,Alexander & Baldwin,1248 Evans Bypass,Vineland,PA,95950,Housing Authority of Braddock,501,General,False,False,False,Transocean,Forum Communications,True
800817066,9803,TC0569-7766,03397585,N-4234 / TC8663-6069,TC9299-9076,PA09MIU8964,Future Bright,326 Morgan Mews,Susanville,PA,30290,Housing Authority of Robinson,467,General,True,True,True,Calpine,Boston Acoustics,
800466012,3136,TC3317-3518,03376472,N-1454 / TC1443-9373,TC6309-2907,PA82YAY9711,Independent Investors,473 Rawles Glen,Eagle Pass,PA,12859,Housing Authority of West Mifflin,435,Elderly,True,False,False,Quality Event Planner,Matrix Interior Design,
800348447,5901,TC1897-7409,03335853,N-4225 / TC8887-5266,TC2573-2809,PA71SGF7157,521 Connecticut Junction,428 Northgate Green,Chicago,PA,53811,Housing Authority of Brentwood,369,General,True,True,True,Ground Round,DC Comics,
800189608,7851,TC3214-5085,03379268,TC7875-8555,TC9593-5515,PA72NAF0936,510 Graystone Extension,1067 Rivas Shore,West Fargo,PA,09996,Housing Authority of Dormont,307,Elderly,False,True,True,Hewlett-Packard,Quality Realty Service,
800921930,10254,TC4761-4873,03373389,N-1247 / TC4004-0780,TC9829-3538,PA22CKX8606,489 Cook Heights,964 Bartol Lane,Independence,PA,45696,Housing Authority of Stowe,499,Elderly,False,False,True,Sonic Solutions,AMR Corporation,
800698286,1359,TC5134-7543,03380869,TC8858-4918,TC7041-3542,PA49ZDR3771,26 Dorchester Hills,482 Zircon Mews,East Orange,PA,96323,Housing Authority of Wilmerding,350,General,True,True,False,Best Biz Survis,GEICO,True
800922574,1806,TC3252-1497,03366726,TC2429-2829,TC6688-7336,PA53EBU8644,325 Entrada Bridge,917 Heather Shore,Steubenville,PA,33805,Housing Authority of Liberty,453,General,True,True,True,WellPoint,United Technologies,True
800103896,3679,TC8782-2312,03382329,Y-6675 / TC9469-6688,TC4007-4011,PA36GIJ6488,1214 La Grande Drive,1005 Miguel Court,Massillon,PA,24897,Housing Authority of Mount Oliver,544,Elderly,False,False,False,Ubu Productions,Popeyes Chicken & Biscuits,
800707306,9685,TC1546-8404,03333219,TC0161-9359,TC4897-6362,PA83NEJ5740,295 Conrad Square,33 Cargo Crescent,Longview,PA,15198,Housing Authority of Ohara,171,General,True,True,True,Capital One,Clear Channel Communications,True
800120678,4516,TC7792-7998,03314046,N-8597 / TC5523-0266,TC5130-6656,PA61XQI7325,1233 Upper Service Trail,654 Oak Grove Square,New Philadelphia,PA,31321,Housing Authority of Glenfield,51,Elderly,True,False,True,Schoep's Ice Cream,"Sun Microsystems, Inc.",True
800868227,3110,TC9983-3163,03347096,Y-9982 / TC2738-4079,TC4452-4733,PA12TDJ5659,Quantrix,941 The Embarcadero Ranch,Trotwood,PA,43505,Housing Authority of Duquesne,126,General,True,False,False,MasterCard,Helios Air,
800759420,662,TC8216-0413,03369260,TC7071-7811,TC2799-5183,PA70WLH7280,The Liberty Corporation,1179 El Polin Annex,Newton,PA,88290,Housing Authority of Homestead,121,Elderly,False,False,True,Oreck Corporation,Forum Communications,True
800088095,9862,TC1264-1556,03368678,TC8704-0227,TC6397-6784,PA15AFZ7818,828 Chaves Bend,971 Sears Lodge,Avondale,PA,79760,Housing Authority of Kennedy,433,General,True,False,True,TLC,Plan Smart,True
800004398,10252,TC0722-4842,03319556,N-5012 / TC9337-1468,TC0209-2564,PA59GGB0794,142 Trainor Drive,243 Melba Annex,Granite City,PA,29819,Housing Authority of Glenfield,252,Elderly,True,True,True,Quest Software,House of Gas,
800072982,2487,TC6462-0343,03365140,Y-1015 / TC6943-5921,TC2132-7473,PA44RVY7273,296 Surrey Street,848 Chaves Road,Bellaire,PA,40716,Housing Authority of Springdale,545,General,True,False,False,Apple Inc.,Powerbod,True
800505808,409,TC2552-9464,03348725,TC8087-3486,TC5232-5677,PA50LLT4813,1269 Clearfield Station,1100 Dawnview Crescent,Leominster,PA,71470,Housing Authority of North Versailles,575,General,False,False,True,Pro Yard Services,Happy Family,True
800851780,6672,TC7219-9345,03309517,N-8693 / TC1406-9303,TC8263-4534,PA02VFM1786,Cut Rite,1348 Mcnair Crossing,Bloomingdale,PA,07794,Housing Authority of Rankin,46,General,False,True,True,Komerci,State Street Corporation,
800951333,9930,TC7519-1231,03332163,N-7224 / TC3087-5950,TC6491-0561,PA32YFK7610,Home Depot,154 Moulton Square,Forest Grove,PA,62675,Housing Authority of Edgewood,568,General,False,True,True,Alliant Techsystems,Seagate Technology,True
800303608,7858,TC9667-3882,03308887,Y-5141 / TC7112-3788,TC2747-9477,PA13HIG5170,667 Springfield Drive,849 Gatun Station,Carson City,PA,09477,Housing Authority of North Fayette,401,General,False,False,True,Better Business Ideas and Services,Life Plan Counselling,
800666891,6394,TC1518-4446,03386366,TC5211-2620,TC0777-8128,PA77CUC2666,1375 Edith Point,213 Naylor Creek,Parker,PA,42656,Housing Authority of Harmar,182,General,False,True,True,Alcoa,Venus Swimwear,True
800620686,3128,TC9241-6617,03306100,Y-1569 / TC7325-8920,TC8627-5863,PA51IWY9943,8 Ashton Bayou,911 Gay Grove,South Gate,PA,82236,Housing Authority of Franklin Park,187,Elderly,True,False,False,Honest Air Group,Mission Realty,
800450413,4529,TC1878-4109,03325174,Y-1425 / TC7781-2574,TC0696-3640,PA07GRD3764,Quest Technology Service,1314 Staples Pass,Lewisville,PA,87953,Housing Authority of Crescent,526,Elderly,False,True,True,Crazy Eddie,Rockstar Games,True
800547495,10398,TC4500-5462,03345189,TC0732-1025,TC8742-6705,PA06UBA4911,434 Jean Garden,692 Evergreen Ranch,University City,PA,99282,Housing Authority of Indiana,64,General,False,True,True,Burlington Coat Factory,EMC Corporation,
800000530,909,TC3399-3766,03363888,Y-4069 / TC8640-2584,TC1007-9358,PA28ANA4209,Pacific Gas & Electric Company,105 Mccann Route,Bloomington,PA,30422,Housing Authority of Collier,562,General,False,True,True,Federal National Mortgage Association,Towers Perrin,
800958018,5727,TC0147-3437,03331879,Y-9624 / TC5967-6317,TC5812-7823,PA41KIG5613,962 Gardenside Crossing,1390 Mersey Trace,Bettendorf,PA,65097,Housing Authority of West Elizabeth,169,Elderly,False,False,True,Tupperware Brands Corporation,Target Corporation,
800735552,8148,TC0468-5225,03370317,N-6465 / TC6793-4783,TC4933-4536,PA56ZMJ0733,625 Escolta Row,1138 Cranleigh Gardens,Midlothian,PA,86987,Housing Authority of Churchill,331,Elderly,True,True,True,BNSF Railway,Amerigroup,
800685629,441,TC7989-5336,03383567,TC2249-5932,TC9948-6578,PA45GWY4870,Home Depot,455 Santa Cruz Extension,Naples,PA,17466,Housing Authority of Kilbuck,93,General,False,True,True,CNA,Subway,
800055857,9037,TC1585-6582,03308605,Y-4058 / TC0368-7384,TC4642-5051,PA96QJU6070,Kraft Foods,775 South Van Ness Junction,McDonough,PA,79755,Housing Authority of Wilkinsburg,453,General,True,True,True,Dippin' Dots,Asian Fusion,
800848532,1060,TC8134-0487,03344777,Y-2795 / TC2497-9408,TC2657-8172,PA54CZB7347,Zig Zag Children Clothes,35 Florence Highway,Southgate,PA,09588,Housing Authority of Rosslyn Farms,502,Elderly,True,False,True,Superior Interior Design,Buena Vista Realty Service,True
800907366,10017,TC2523-6680,03327095,Y-0932 / TC7906-3720,TC1634-4753,PA64BHY4954,Konsili,812 Lowell Pike,Lenoir,PA,40223,Housing Authority of Sharpsburg,22,General,False,False,False,Dream Home Improvements,"Yum! Brands, Inc.",True
800839572,2103,TC7798-5852,03387916,N-7489 / TC8567-3682,TC6657-6933,PA21XUG7265,475 Allen Pike,1022 Roselyn Path,Kankakee,PA,98508,Housing Authority of Findlay,568,Elderly,True,True,True,Vivitar,Netobill,True
800099635,4417,TC0509-5100,03388403,N-6229 / TC0239-0912,TC2871-8529,PA73KXW8639,Techo Solutions,340 Cardenas Ferry,Lockport,PA,40085,Housing Authority of Mount Oliver,331,General,False,True,True,American Electric Power,DRS Technologies,True
800223206,1880,TC2686-8919,03346656,TC3861-0039,TC6257-8160,PA54WEN1235,General Electric,1287 Villa Creek,Hastings,PA,13094,Housing Authority of Stowe,371,General,False,True,False,MTX Audio,Amerigroup,True
800807929,2209,TC7143-0291,03362424,N-1181 / TC2782-5260,TC8363-4444,PA88LTG3772,H&R Block,1092 Burnside Stravenue,Roswell,PA,26912,Housing Authority of West View,558,General,True,False,False,Overcast Media,The Flying Bear,True
800277416,8528,TC5012-2163,03349612,TC4915-5277,TC2585-9679,PA46WCX3047,BJ Services Company,1106 Alana Bend,Largo,PA,21423,Housing Authority of North Versailles,199,Elderly,True,True,True,Lennox International,Peterbilt,True
800097555,10776,TC1394-4584,03350404,N-6268 / TC8633-1054,TC9428-1173,PA98FOO3221,350 Landers Trace,895 San Miguel Bayou,De Land,PA,02858,Housing Authority of Bell Acres,122,Elderly,True,True,True,Northern Star,Southwest Airlines,
800925458,1021,TC9631-3719,03367371,N-7173 / TC6255-7889,TC9221-7605,PA14IYC1412,514 Teddy Square,623 Ruth Loop,Ypsilanti,PA,52984,Housing Authority of Tarentum,508,Elderly,True,False,True,Harley-Davidson,Hi-Point Firearms,
800668531,789,TC9095-3997,03349423,Y-5104 / TC6340-5665,TC1824-3793,PA14AGH0866,Lockheed Martin,493 Rosemary Crossing,St. Peters,PA,64129,Housing Authority of Wilmerding,163,Elderly,True,False,False,Borders Group,Aflac,True
800915924,8859,TC3829-2417,03398062,Y-5880 / TC2172-1533,TC1279-8613,PA28IYU1669,Alliant Techsystems,326 Archer Ferry,Mishawaka,PA,13227,Housing Authority of Emsworth,15,General,True,True,False,Hewlett-Packard,Estée Lauder Companies,True
800670604,6820,TC2282-8485,03354144,TC8514-1135,TC7222-6411,PA65ABR7627,Platinum Interior Design,600 Griffith Drive,Cortland,PA,21860,Housing Authority of West View,530,General,True,True,True,Home Depot,Polaris Industries,True
800958395,2929,TC4405-7630,03384079,N-6084 / TC5946-0905,TC1264-2064,PA77ADJ8744,Allen Organ Company,791 Battery Cranston Heights,Tooele,PA,82219,Housing Authority of South Park,165,Elderly,True,True,False,Alcoa,Ultimate Software,True
800310480,8206,TC0666-1261,03394170,Y-6675 / TC0359-5302,TC8830-8940,PA33CYK4615,394 Diamond Heights Hill,982 Walbridge Mall,Midvale,PA,48809,Housing Authority of Jefferson Hills,82,Elderly,False,True,False,Bath & Body Works,Amtrak,True
800769051,1186,TC8042-9147,03380238,N-8766 / TC8503-0156,TC6142-3837,PA69POB2542,Union Oil Company of California,1030 Avenue E Path,Keene,PA,92950,Housing Authority of East McKeesport,542,Elderly,False,False,True,Esselte,Rockwell Collins,True
800461094,1536,TC9124-6282,03377963,Y-8331 / TC8208-0615,TC7175-5729,PA23XSA0887,813 Marcy Bypass,673 Ingleside Arcade,Charlottesville,PA,48735,Housing Authority of Blawnox,146,General,True,True,False,Atlas Architectural Designs,Terra Nova Garden Services,
800849119,276,TC1003-3877,03379029,N-3974 / TC7539-9063,TC6445-5564,PA80VUM4244,311 Rudden Circle,1209 Pollard Bridge,Morristown,PA,97603,Housing Authority of McKeesport,433,Elderly,True,True,False,E-zhe Source,Monk Home Loans,True
800906050,9121,TC1314-5809,03381845,TC1122-6752,TC8687-2292,PA31KJO5988,BB&T Corporation,286 Arballo Spur,Painesville,PA,92813,Housing Authority of Ohara,431,Elderly,False,True,False,Go Daddy,Rent-A-Wreck,True
800484790,5561,TC1159-5181,03364103,Y-5290 / TC7080-9467,TC2769-0219,PA16VWW9495,Advanced Micro Devices,324 Anzavista Avenue,Chillicothe,PA,67184,Housing Authority of West Mifflin,180,General,True,False,True,ABM Industries,Specific Appraisals,True
800977382,595,TC4760-1419,03310040,Y-2076 / TC5600-6699,TC1677-7372,PA25JBA5935,Popeyes Chicken & Biscuits,661 Farragut Square,Lorain,PA,24821,Housing Authority of Leet,387,Elderly,True,False,False,Dole Foods,Silicon Image,True
800377410,2862,TC0684-4051,03308370,N-9862 / TC9445-3119,TC5556-2039,PA03ADB0645,Alladin Realty,934 Seawell Extension,Jersey City,PA,82669,Housing Authority of Oakdale,240,Elderly,False,False,False,General Communication,Bemis Manufacturing Company,True
800202599,283,TC4463-9197,03379180,N-3588 / TC4481-9310,TC0913-0969,PA91JIB5360,Macro Design,124 Bernard Square,Dalton,PA,28341,Housing Authority of Pitcairn,116,General,False,True,True,AutoNation,Alexander & Baldwin,
800689256,2834,TC1560-0154,03306229,TC8833-8397,TC1545-3570,PA19IGD0370,FreeWave Technologies,1228 Langdon Grove,Carson,PA,38242,Housing Authority of Bell Acres,282,General,True,False,False,Supervalu,XPLANE,True
800166459,8158,TC2949-9505,03321080,N-8150 / TC9276-8120,TC5991-5957,PA13EBU3926,Monk House Sales,1195 Hagiwara Tea Garden Bayou,Maywood,PA,88883,Housing Authority of Green Tree,10,Elderly,True,True,True,Life Plan Counselling,Cut Above,True
800085472,2119,TC5059-3783,03306527,N-0269 / TC1355-0752,TC7115-6584,PA90QXE1294,837 Garden Trace,1045 Valley Gardens,Brooklyn Park,PA,54008,Housing Authority of Edgeworth,155,General,True,True,True,Solid Future,Towers Perrin,True
800120807,1060,TC0362-3659,03303448,Y-6050 / TC0579-2697,TC6757-0067,PA71CTV0226,AC Lens,30 Fontinella Gardens,Pleasant Grove,PA,76956,Housing Authority of Avalon,82,Elderly,False,True,False,Alexander & Baldwin,Microcat,
800382604,10778,TC7925-5787,03314619,Y-4585 / TC6955-5553,TC7858-8559,PA25UKJ5068,335 Pilgrim Boulevard,223 Ozbourn Ranch,Lomita,PA,92884,Housing Authority of Sharpsburg,110,Elderly,True,False,True,Alladin Realty,Vaughan & Bushnell Manufacturing,
